REAL                    
1 64875U 25154G   26068.72233414  .00022901  00000+0  82904-3 0  9994
2 64875  97.4133 137.2581 0001853 118.5876 241.5550 15.28408058 34830
STARLINK-36444          
1 67521U 26012AE  26067.70625664  .00053774  00000+0  19473-2 0  9990
2 67521  42.9989 319.7580 0001132 263.0091  97.0632 15.27614984  7613
